NORAD_CAT_ID,OBJECT_NAME,OBJECT_TYPE,EPOCH,MEAN_MOTION,ECCENTRICITY,INCLINATION,RA_OF_ASC_NODE,ARG_OF_PERICENTER,MEAN_ANOMALY,BSTAR,MEAN_MOTION_DOT,MEAN_MOTION_DDOT,TLE_LINE0,TLE_LINE1,TLE_LINE2,SEMIMAJOR_AXIS,PERIOD,APOGEE,PERIGEE,DECAYED
55947.0,STARLINK-5851,PAYLOAD,2023-11-05 05:17:25,14.98342676,0.0002601,70.0,281.2133,267.8401,92.246,0.00019848,2.277e-05,0.0,0 STARLINK-5851,1 55947U 23037AK  23309.22043406  .00002277  00000-0  19848-3 0  9994,2 55947  70.0000 281.2133 0002601 267.8401  92.2460 14.98342676 36187,6950.154,96.106,573.826,570.211,0.0
55947.0,STARLINK-5851,PAYLOAD,2023-11-05 08:29:41,14.98337367,0.0002697,69.9997,280.8771,266.4658,93.6193,0.00014801,1.674e-05,0.0,0 STARLINK-5851,1 55947U 23037AK  23309.35395787  .00001674  00000-0  14801-3 0  9994,2 55947  69.9997 280.8771 0002697 266.4658  93.6193 14.98337367 36208,6950.17,96.107,573.91,570.161,0.0
55947.0,STARLINK-5851,PAYLOAD,2023-11-05 22:54:54,14.9834024,0.0002541,70.0008,279.3618,273.3416,86.7453,-1.2741e-05,-2.45e-06,0.0,0 STARLINK-5851,1 55947U 23037AK  23309.95479961 -.00000245  00000-0 -12741-4 0  9994,2 55947  70.0008 279.3618 0002541 273.3416  86.7453 14.98340240 35951,6950.161,96.106,573.792,570.26,0.0
55947.0,STARLINK-5851,PAYLOAD,2023-11-06 08:31:42,14.9834448,0.0002289,70.0008,278.3545,256.6517,103.4387,0.00018121,2.071e-05,0.0,0 STARLINK-5851,1 55947U 23037AK  23310.35534866  .00002071  00000-0  18121-3 0  9990,2 55947  70.0008 278.3545 0002289 256.6517 103.4387 14.98344480 36352,6950.148,96.106,573.604,570.422,0.0
55947.0,STARLINK-5851,PAYLOAD,2023-11-06 14:56:16,14.98323756,0.0002546,70.0001,277.6788,277.3559,82.731,-0.00010257,-1.316e-05,0.0,0 STARLINK-5851,1 55947U 23037AK  23310.62240802 -.00001316  00000-0 -10257-3 0  9999,2 55947  70.0001 277.6788 0002546 277.3559  82.7310 14.98323756 36390,6950.212,96.107,573.847,570.308,0.0
55947.0,STARLINK-5851,PAYLOAD,2023-11-07 03:45:22,14.98305207,0.0002617,69.9998,276.334,267.5808,92.5052,-0.00031331,-3.827e-05,0.0,0 STARLINK-5851,1 55947U 23037AK  23311.15651021 -.00003827  00000-0 -31331-3 0  9992,2 55947  69.9998 276.3340 0002617 267.5808  92.5052 14.98305207 36471,6950.27,96.109,573.953,570.316,0.0
55947.0,STARLINK-5851,PAYLOAD,2023-11-07 08:33:46,14.98314333,0.0002336,69.9997,275.8271,263.352,96.7373,-0.00039795,-4.836e-05,0.0,0 STARLINK-5851,1 55947U 23037AK  23311.35678902 -.00004836  00000-0 -39795-3 0  9994,2 55947  69.9997 275.8271 0002336 263.3520  96.7373 14.98314333 36506,6950.241,96.108,573.73,570.483,0.0
55947.0,STARLINK-5851,PAYLOAD,2023-11-08 03:47:22,14.9832747,0.000246,69.9999,273.809,260.6708,99.4173,-0.00011523,-1.467e-05,0.0,0 STARLINK-5851,1 55947U 23037AK  23312.15790055 -.00001467  00000-0 -11523-3 0  9993,2 55947  69.9999 273.8090 0002460 260.6708  99.4173 14.98327470 36628,6950.201,96.107,573.775,570.356,0.0
55947.0,STARLINK-5851,PAYLOAD,2023-11-08 06:59:38,14.98329633,0.0002486,69.9998,273.4724,262.1779,97.9098,-9.0491e-05,-1.172e-05,0.0,0 STARLINK-5851,1 55947U 23037AK  23312.29141878 -.00001172  00000-0 -90491-4 0  9996,2 55947  69.9998 273.4724 0002486 262.1779  97.9098 14.98329633 36307,6950.194,96.107,573.787,570.331,0.0
55947.0,STARLINK-5851,PAYLOAD,2023-11-08 23:00:58,14.98319515,0.0003043,70.0003,271.7887,275.7842,84.297,0.00045923,5.389e-05,0.0,0 STARLINK-5851,1 55947U 23037AK  23312.95901108  .00005389  00000-0  45923-3 0  9990,2 55947  70.0003 271.7887 0003043 275.7842  84.2970 14.98319515 36406,6950.225,96.108,574.205,569.975,0.0
55947.0,STARLINK-5851,PAYLOAD,2023-11-09 03:49:21,14.98336327,0.0002833,70.0,271.2834,273.4107,86.6728,0.0005736,6.759e-05,0.0,0 STARLINK-5851,1 55947U 23037AK  23313.15927876  .00006759  00000-0  57360-3 0  9993,2 55947  70.0000 271.2834 0002833 273.4107  86.6728 14.98336327 36772,6950.173,96.107,574.007,570.069,0.0
55947.0,STARLINK-5851,PAYLOAD,2023-11-09 07:01:38,14.98335562,0.0002661,69.9995,270.9472,267.5266,92.5589,0.00048941,5.752e-05,0.0,0 STARLINK-5851,1 55947U 23037AK  23313.29280103  .00005752  00000-0  48941-3 0  9990,2 55947  69.9995 270.9472 0002661 267.5266  92.5589 14.98335562 36451,6950.176,96.107,573.89,570.191,0.0
55947.0,STARLINK-5851,PAYLOAD,2023-11-09 23:02:59,14.98330305,0.0002862,69.9999,269.2647,270.6321,89.451,7.8578e-05,8.45e-06,0.0,0 STARLINK-5851,1 55947U 23037AK  23313.96041495  .00000845  00000-0  78578-4 0  9991,2 55947  69.9999 269.2647 0002862 270.6321  89.4510 14.98330305 36550,6950.192,96.107,574.046,570.068,0.0
55947.0,STARLINK-5851,PAYLOAD,2023-11-10 03:51:23,14.98335191,0.0002633,69.9996,268.758,266.2317,93.8541,0.00012681,1.421e-05,0.0,0 STARLINK-5851,1 55947U 23037AK  23314.16069016  .00001421  00000-0  12681-3 0  9996,2 55947  69.9996 268.7580 0002633 266.2317  93.8541 14.98335191 36921,6950.177,96.107,573.872,570.212,0.0
55947.0,STARLINK-5851,PAYLOAD,2023-11-10 07:03:41,14.98314454,0.0002576,69.9997,268.4213,266.3735,93.713,-0.00010571,-1.353e-05,0.0,0 STARLINK-5851,1 55947U 23037AK  23314.29422793 -.00001353  00000-0 -10571-3 0  9997,2 55947  69.9997 268.4213 0002576 266.3735  93.7130 14.98314454 36947,6950.241,96.108,573.896,570.316,0.0
55947.0,STARLINK-5851,PAYLOAD,2023-11-10 21:28:52,14.98344414,0.000281,69.9991,266.906,269.7762,90.3075,-0.00014518,-1.825e-05,0.0,0 STARLINK-5851,1 55947U 23037AK  23314.89504749 -.00001825  00000-0 -14518-3 0  9994,2 55947  69.9991 266.9060 0002810 269.7762  90.3075 14.98344414 36694,6950.148,96.106,573.966,570.06,0.0
55947.0,STARLINK-5851,PAYLOAD,2023-11-11 03:53:24,14.98340305,0.0002683,69.9992,266.2323,266.1014,93.9838,-6.2556e-05,-8.39e-06,0.0,0 STARLINK-5851,1 55947U 23037AK  23315.16208511 -.00000839  00000-0 -62556-4 0  9993,2 55947  69.9992 266.2323 0002683 266.1014  93.9838 14.98340305 37073,6950.161,96.106,573.891,570.161,0.0
55947.0,STARLINK-5851,PAYLOAD,2023-11-11 07:05:39,14.98347926,0.0002792,69.9994,265.8963,269.4481,90.6358,-8.4642e-05,-1.103e-05,0.0,0 STARLINK-5851,1 55947U 23037AK  23315.29559996 -.00001103  00000-0 -84642-4 0  9998,2 55947  69.9994 265.8963 0002792 269.4481  90.6358 14.98347926 36756,6950.137,96.106,573.943,570.062,0.0
55947.0,STARLINK-5851,PAYLOAD,2023-11-11 21:30:52,14.98330875,0.0002547,70.0007,264.3825,264.0554,96.0315,2.6761e-05,2.26e-06,0.0,0 STARLINK-5851,1 55947U 23037AK  23315.89644464  .00000226  00000-0  26761-4 0  9990,2 55947  70.0007 264.3825 0002547 264.0554  96.0315 14.98330875 36843,6950.19,96.107,573.825,570.285,0.0
55947.0,STARLINK-5851,PAYLOAD,2023-11-12 03:55:25,14.98329715,0.0002518,70.0004,263.7097,259.383,100.7045,1.3841e-06,-7.6e-07,0.0,0 STARLINK-5851,1 55947U 23037AK  23316.16348572 -.00000076  00000-0  13841-5 0  9992,2 55947  70.0004 263.7097 0002518 259.3830 100.7045 14.98329715 37223,6950.194,96.107,573.809,570.309,0.0
55947.0,STARLINK-5851,PAYLOAD,2023-11-12 13:32:12,14.98347326,0.0002737,69.9999,262.6978,270.2962,89.7884,-0.00023331,-2.877e-05,0.0,0 STARLINK-5851,1 55947U 23037AK  23316.56403916 -.00002877  00000-0 -23331-3 0  9995,2 55947  69.9999 262.6978 0002737 270.2962  89.7884 14.98347326 36943,6950.139,96.106,573.907,570.102,0.0
55947.0,STARLINK-5851,PAYLOAD,2023-11-12 21:32:53,14.98336061,0.0002501,70.0001,261.8566,266.8782,93.2091,2.3988e-05,1.93e-06,0.0,0 STARLINK-5851,1 55947U 23037AK  23316.89784012  .00000193  00000-0  23988-4 0  9996,2 55947  70.0001 261.8566 0002501 266.8782  93.2091 14.98336061 36993,6950.174,96.107,573.777,570.301,0.0
55947.0,STARLINK-5851,PAYLOAD,2023-11-13 05:33:33,14.98336592,0.0002485,70.0,261.0151,262.2003,97.8874,6.9198e-05,7.33e-06,0.0,0 STARLINK-5851,1 55947U 23037AK  23317.23163727  .00000733  00000-0  69198-4 0  9992,2 55947  70.0000 261.0151 0002485 262.2003  97.8874 14.98336592 37046,6950.173,96.107,573.765,570.31,0.0
55947.0,STARLINK-5851,PAYLOAD,2023-11-13 13:34:14,14.9832925,0.0001999,70.0016,260.1727,265.7865,94.3065,-6.3461e-05,-8.5e-06,0.0,0 STARLINK-5851,1 55947U 23037AK  23317.56544616 -.00000850  00000-0 -63461-4 0  9997,2 55947  70.0016 260.1727 0001999 265.7865  94.3065 14.98329250 37435,6950.195,96.107,573.45,570.671,0.0
55947.0,STARLINK-5851,PAYLOAD,2023-11-13 19:58:46,14.98324318,0.0002248,70.0018,259.5033,254.6384,105.4526,1.4735e-05,8.3e-07,0.0,0 STARLINK-5851,1 55947U 23037AK  23317.83248563  .00000083  00000-0  14735-4 0  9995,2 55947  70.0018 259.5033 0002248 254.6384 105.4526 14.98324318 37133,6950.21,96.107,573.638,570.513,0.0
55947.0,STARLINK-5851,PAYLOAD,2023-11-14 13:36:15,14.98328842,0.000288,69.9997,257.6481,270.5762,89.5066,-2.1433e-05,-3.49e-06,0.0,0 STARLINK-5851,1 55947U 23037AK  23318.56684483 -.00000349  00000-0 -21433-4 0  9991,2 55947  69.9997 257.6481 0002880 270.5762  89.5066 14.98328842 37240,6950.196,96.107,574.063,570.06,0.0
55947.0,STARLINK-5851,PAYLOAD,2023-11-15 04:01:26,14.98341696,0.0002897,69.9993,256.1337,267.5584,92.5243,7.7783e-05,8.35e-06,0.0,0 STARLINK-5851,1 55947U 23037AK  23319.16767197  .00000835  00000-0  77783-4 0  9999,2 55947  69.9993 256.1337 0002897 267.5584  92.5243 14.98341696 37676,6950.157,96.106,574.035,570.008,0.0
55947.0,STARLINK-5851,PAYLOAD,2023-11-15 05:37:34,14.98343592,0.0002864,69.9995,255.9656,267.343,92.7401,0.00010315,1.138e-05,0.0,0 STARLINK-5851,1 55947U 23037AK  23319.23442971  .00001138  00000-0  10315-3 0  9991,2 55947  69.9995 255.9656 0002864 267.3430  92.7401 14.98343592 37340,6950.151,96.106,574.006,570.025,0.0
55947.0,STARLINK-5851,PAYLOAD,2023-11-16 02:27:21,14.98319304,0.0001922,70.0014,253.7773,266.6485,93.4455,9.8598e-05,1.083e-05,0.0,0 STARLINK-5851,1 55947U 23037AK  23320.10232686  .00001083  00000-0  98598-4 0  9998,2 55947  70.0014 253.7773 0001922 266.6485  93.4455 14.98319304 37810,6950.226,96.108,573.427,570.755,0.0
55947.0,STARLINK-5851,PAYLOAD,2023-11-16 05:39:37,14.98316402,0.0002459,70.0014,253.4403,273.9031,86.1847,0.00012938,1.451e-05,0.0,0 STARLINK-5851,1 55947U 23037AK  23320.23584867  .00001451  00000-0  12938-3 0  9995,2 55947  70.0014 253.4403 0002459 273.9031  86.1847 14.98316402 37495,6950.235,96.108,573.809,570.391,0.0
